TANSAT                  
1 41898U 16081A   26137.61279420  .00000333  00000+0  79890-4 0  9991
2 41898  98.5360 136.9680 0021609  46.1326 314.1654 14.59923028500165
JILIN-1 03              
1 41914U 17002B   26137.57453890  .00008126  00000+0  20044-3 0  9998
2 41914  97.1950 145.1087 0003589 287.5846  72.5009 15.40788011517149
CARTOSAT-2D             
1 41948U 17008A   26137.59817644  .00001323  00000+0  65976-4 0  9990
2 41948  97.4129 197.4700 0004392   4.7374 355.3902 15.19242203512937
CARTOSAT-2E             
1 42767U 17036C   26137.61561417  .00003193  00000+0  15482-3 0  9991
2 42767  97.4300 197.9170 0004298  63.9282 296.2394 15.19224002493500
IRIDIUM 113             
1 42803U 17039A   26137.54221297  .00000044  00000+0  88115-5 0  9993
2 42803  86.3966 334.9945 0002280  92.4215 267.7242 14.34217834466798
NORSAT 2                
1 42828U 17042D   26137.44791165  .00007669  00000+0  34572-3 0  9995
2 42828  97.4020 311.3949 0010504 153.3961 206.7816 15.21260737483061
TECHNOSAT               
1 42829U 17042E   26137.39623455  .00002397  00000+0  17373-3 0  9999
2 42829  97.4245 296.2367 0017445 195.3770 164.6929 15.04748793482072
FLYING LAPTOP           
1 42831U 17042G   26137.65405127  .00002503  00000+0  20033-3 0  9991
2 42831  97.4547 294.3917 0017797 225.3704 134.6070 15.00930151481879
WNISAT 1R               
1 42835U 17042L   26137.44041505  .00001599  00000+0  12763-3 0  9993
2 42835  97.4801 294.6697 0009882 268.0491  91.9602 15.01609707481896
LEMUR-2-GREENBERG       
1 42837U 17042N   26137.49514602  .00010390  00000+0  35636-3 0  9996
2 42837  97.3805 318.2881 0010421 113.0775 247.1566 15.30304390483690
LEMUR-2-FURIAUS         
1 42840U 17042R   26137.46657410  .00010452  00000+0  37151-3 0  9995
2 42840  97.3759 316.2859 0008173 164.2712 195.8783 15.29156896483510
CORVUS BC2              
1 42846U 17042X   26137.43551051  .00001808  00000+0  12769-3 0  9995
2 42846  97.4038 299.9917 0012218 210.3708 149.6813 15.06082946482432
CORVUS BC1              
1 42847U 17042Y   26137.43361412  .00001700  00000+0  11974-3 0  9994
2 42847  97.4069 300.7838 0011756 185.4973 174.6128 15.06253793482462
VRSS-2                  
1 42954U 17060A   26137.58428324  .00000456  00000+0  64993-4 0  9992
2 42954  97.6536 176.6866 0016477 194.9970 165.0757 14.81139021463921
MOHAMMED VI-A           
1 43005U 17070A   26137.59157586  .00000740  00000+0  11196-3 0  9993
2 43005  97.9571 210.3417 0001572 105.9274 254.2109 14.77096343459468
FENGYUN 3D              
1 43010U 17072A   26137.63169972 -.00000028  00000+0  87691-5 0  9993
2 43010  99.0108 111.5049 0002331 112.9171 247.2251 14.19732008440656
NOAA 20 (JPSS-1)        
1 43013U 17073A   26137.55115414  .00000021  00000+0  31152-4 0  9992
2 43013  98.7762  77.2881 0001361  46.7578 313.3711 14.19505491440122
MAKERSAT 0              
1 43016U 17073D   26137.40502619  .00017905  00000+0  49983-3 0  9995
2 43016  97.4671  19.7092 0110901  23.6146 337.0130 15.30727134461755
RADFXSAT (FOX-1B)       
1 43017U 17073E   26137.44353037  .00007624  00000+0  33449-3 0  9995
2 43017  97.4743   5.2970 0153823  74.9703 286.8493 15.12114613460742
JILIN-1 04              
1 43022U 17074A   26137.58689931  .00008880  00000+0  21308-3 0  9998
2 43022  97.4835 246.4089 0002689 316.7039  43.3996 15.41615283469555
JILIN-1 05              
1 43023U 17074B   26137.58537324  .00005604  00000+0  17628-3 0  9998
2 43023  97.4843 243.3427 0004613 353.1304   6.9874 15.33367965469312
JILIN-1 06              
1 43024U 17074C   26137.55483170  .00004267  00000+0  13498-3 0  9990
2 43024  97.4770 240.3562 0006631   1.3943 358.7316 15.33325307469146
IRIDIUM 116             
1 43072U 17083C   26137.51684486  .00000035  00000+0  55630-5 0  9997
2 43072  86.3961 334.8300 0001992  80.7758 279.3663 14.34218723439779
IRIDIUM 130             
1 43073U 17083D   26137.55489720  .00000071  00000+0  18417-4 0  9997
2 43073  86.3967 335.0865 0002223  82.0328 278.1120 14.34218276439724
LKW-2                   
1 43080U 17084A   26137.60488987  .00004111  00000+0  16301-3 0  9994
2 43080  97.1215 178.8358 0002405  43.2271 316.9157 15.25903719467025
SUPERVIEW-1 03          
1 43099U 18002A   26137.60102969  .00009494  00000+0  24510-3 0  9998
2 43099  97.3135 222.5101 0046228 291.3785  68.2531 15.38248739463665
CARTOSAT-2F             
1 43111U 18004A   26137.18610425  .00000255  00000+0  15333-4 0  9999
2 43111  97.4814 197.1190 0001657  46.0784 314.0587 15.19205508462625
LKW-3                   
1 43146U 18006A   26137.60920950  .00007146  00000+0  21557-3 0  9993
2 43146  97.6581 297.0105 0004073  69.3130 290.8549 15.34609699464021
