OBJECT_NAME,OBJECT_ID,EPOCH,MEAN_MOTION,ECCENTRICITY,INCLINATION,RA_OF_ASC_NODE,ARG_OF_PERICENTER,MEAN_ANOMALY,EPHEMERIS_TYPE,CLASSIFICATION_TYPE,NORAD_CAT_ID,ELEMENT_SET_NO,REV_AT_EPOCH,BSTAR,MEAN_MOTION_DOT,MEAN_MOTION_DDOT
TANSAT,2016-081A,2026-05-17T14:42:25.418880,14.59923028,.00216091,98.5360,136.9680,46.1326,314.1654,0,U,41898,999,50016,.79890205E-4,.333E-5,0
JILIN-1 03,2017-002B,2026-05-17T13:47:20.160960,15.40788011,.00035893,97.1950,145.1087,287.5846,72.5009,0,U,41914,999,51714,.20044443E-3,.8126E-4,0
CARTOSAT-2D,2017-008A,2026-05-17T14:21:22.444416,15.19242203,.00043927,97.4129,197.4700,4.7374,355.3902,0,U,41948,999,51293,.65976374E-4,.1323E-4,0
CARTOSAT-2E,2017-036C,2026-05-17T14:46:29.064288,15.19224002,.00042983,97.4300,197.9170,63.9282,296.2394,0,U,42767,999,49350,.15482421E-3,.3193E-4,0
IRIDIUM 113,2017-039A,2026-05-17T13:00:47.200608,14.34217834,.00022802,86.3966,334.9945,92.4215,267.7242,0,U,42803,999,46679,.8811524E-5,.44E-6,0
NORSAT 2,2017-042D,2026-05-17T10:44:59.566560,15.21260737,.00105045,97.4020,311.3949,153.3961,206.7816,0,U,42828,999,48306,.34571661E-3,.7669E-4,0
TECHNOSAT,2017-042E,2026-05-17T09:30:34.665120,15.04748793,.00174456,97.4245,296.2367,195.3770,164.6929,0,U,42829,999,48207,.17372995E-3,.2397E-4,0
FLYING LAPTOP,2017-042G,2026-05-17T15:41:50.029728,15.00930151,.00177974,97.4547,294.3917,225.3704,134.6070,0,U,42831,999,48187,.2003329E-3,.2503E-4,0
WNISAT 1R,2017-042L,2026-05-17T10:34:11.860320,15.01609707,.00098829,97.4801,294.6697,268.0491,91.9602,0,U,42835,999,48189,.12763373E-3,.1599E-4,0
LEMUR-2-GREENBERG,2017-042N,2026-05-17T11:53:00.616128,15.30304390,.00104219,97.3805,318.2881,113.0775,247.1566,0,U,42837,999,48369,.3563568E-3,.1039E-3,0
LEMUR-2-FURIAUS,2017-042R,2026-05-17T11:11:52.002240,15.29156896,.00081731,97.3759,316.2859,164.2712,195.8783,0,U,42840,999,48351,.37151447E-3,.10452E-3,0
CORVUS BC2,2017-042X,2026-05-17T10:27:08.108064,15.06082946,.00122184,97.4038,299.9917,210.3708,149.6813,0,U,42846,999,48243,.12768694E-3,.1808E-4,0
CORVUS BC1,2017-042Y,2026-05-17T10:24:24.259968,15.06253793,.0011756,97.4069,300.7838,185.4973,174.6128,0,U,42847,999,48246,.11974208E-3,.17E-4,0
VRSS-2,2017-060A,2026-05-17T14:01:22.071936,14.81139021,.00164775,97.6536,176.6866,194.9970,165.0757,0,U,42954,999,46392,.64993311E-4,.456E-5,0
MOHAMMED VI-A,2017-070A,2026-05-17T14:11:52.154304,14.77096343,.00015724,97.9571,210.3417,105.9274,254.2109,0,U,43005,999,45946,.11196131E-3,.74E-5,0
FENGYUN 3D,2017-072A,2026-05-17T15:09:38.855808,14.19732008,.00023319,99.0108,111.5049,112.9171,247.2251,0,U,43010,999,44065,.8769082E-5,-.28E-6,0
NOAA 20 (JPSS-1),2017-073A,2026-05-17T13:13:39.717696,14.19505491,.00013616,98.7762,77.2881,46.7578,313.3711,0,U,43013,999,44012,.31151911E-4,.21E-6,0
MAKERSAT 0,2017-073D,2026-05-17T09:43:14.262816,15.30727134,.01109012,97.4671,19.7092,23.6146,337.0130,0,U,43016,999,46175,.49983194E-3,.17905E-3,0
RADFXSAT (FOX-1B),2017-073E,2026-05-17T10:38:41.023968,15.12114613,.01538237,97.4743,5.2970,74.9703,286.8493,0,U,43017,999,46074,.33449352E-3,.7624E-4,0
JILIN-1 04,2017-074A,2026-05-17T14:05:08.100384,15.41615283,.00026899,97.4835,246.4089,316.7039,43.3996,0,U,43022,999,46955,.21308237E-3,.888E-4,0
JILIN-1 05,2017-074B,2026-05-17T14:02:56.247936,15.33367965,.00046131,97.4843,243.3427,353.1304,6.9874,0,U,43023,999,46931,.17628044E-3,.5604E-4,0
JILIN-1 06,2017-074C,2026-05-17T13:18:57.458880,15.33325307,.0006631,97.4770,240.3562,1.3943,358.7316,0,U,43024,999,46914,.13497569E-3,.4267E-4,0
IRIDIUM 116,2017-083C,2026-05-17T12:24:15.395904,14.34218723,.00019925,86.3961,334.8300,80.7758,279.3663,0,U,43072,999,43977,.5562973E-5,.35E-6,0
IRIDIUM 130,2017-083D,2026-05-17T13:19:03.118080,14.34218276,.00022237,86.3967,335.0865,82.0328,278.1120,0,U,43073,999,43972,.18416857E-4,.71E-6,0
LKW-2,2017-084A,2026-05-17T14:31:02.484768,15.25903719,.00024057,97.1215,178.8358,43.2271,316.9157,0,U,43080,999,46702,.16301207E-3,.4111E-4,0
SUPERVIEW-1 03,2018-002A,2026-05-17T14:25:28.965216,15.38248739,.00462281,97.3135,222.5101,291.3785,68.2531,0,U,43099,999,46366,.24509819E-3,.9494E-4,0
CARTOSAT-2F,2018-004A,2026-05-17T04:27:59.407200,15.19205508,.00016572,97.4814,197.1190,46.0784,314.0587,0,U,43111,999,46262,.15332945E-4,.255E-5,0
LKW-3,2018-006A,2026-05-17T14:37:15.700800,15.34609699,.00040736,97.6581,297.0105,69.3130,290.8549,0,U,43146,999,46402,.21557043E-3,.7146E-4,0
